[{"OBJECT_NAME":"STARLINK-32412","OBJECT_ID":"2024-193V","EPOCH":"2026-03-09T08:49:06.450528","MEAN_MOTION":15.30208553,"ECCENTRICITY":0.00013908,"INCLINATION":53.1592,"RA_OF_ASC_NODE":92.7577,"ARG_OF_PERICENTER":103.1881,"MEAN_ANOMALY":256.9275,"EPHEMERIS_TYPE":0,"CLASSIFICATION_TYPE":"U","NORAD_CAT_ID":61680,"ELEMENT_SET_NO":999,"REV_AT_EPOCH":7647,"BSTAR":0.00015131734,"MEAN_MOTION_DOT":4.126e-5,"MEAN_MOTION_DDOT":0},{"OBJECT_NAME":"CZ-2C DEB","OBJECT_ID":"2018-056F","EPOCH":"2026-03-09T10:57:26.102304","MEAN_MOTION":15.27739248,"ECCENTRICITY":0.00119172,"INCLINATION":98.1188,"RA_OF_ASC_NODE":250.032,"ARG_OF_PERICENTER":4.6998,"MEAN_ANOMALY":355.4349,"EPHEMERIS_TYPE":0,"CLASSIFICATION_TYPE":"U","NORAD_CAT_ID":43534,"ELEMENT_SET_NO":999,"REV_AT_EPOCH":41855,"BSTAR":0.00085537155,"MEAN_MOTION_DOT":0.00023193,"MEAN_MOTION_DDOT":0}]
